PHASE 3B (AO-10)        
1 14129U 83058B   21036.88208431 -.00000314  00000-0  00000-0 0  9996
2 14129  25.8129 176.5213 6060113 307.5686  11.3516  2.05870481255210
UOSAT 2 (UO-11)         
1 14781U 84021B   21037.92625661  .00000125  00000-0  21347-4 0  9995
2 14781  97.5907  44.2134 0009290 142.6924 217.4937 14.83244507966581
LUSAT (LO-19)           
1 20442U 90005G   21038.12513310 -.00000006  00000-0  14428-4 0  9996
2 20442  98.7245 352.5296 0011673 179.1432 180.9774 14.32975454622220
EYESAT A (AO-27)        
1 22825U 93061C   21037.82532923 -.00000002  00000-0  17126-4 0  9999
2 22825  98.9243  52.1853 0009307  59.0092 301.2002 14.30105372427315
ITAMSAT (IO-26)         
1 22826U 93061D   21038.03644307  .00000001  00000-0  18328-4 0  9997
2 22826  98.9184  52.3231 0009686  46.8931 313.3060 14.30443094427839
RADIO ROSTO (RS-15)     
1 23439U 94085A   21037.97379692 -.00000037  00000-0  15882-3 0  9990
2 23439  64.8135 226.9832 0156899 358.7633   1.2883 11.27570399 75621
JAS-2 (FO-29)           
1 24278U 96046B   21037.79190682 -.00000052  00000-0 -18875-4 0  9995
2 24278  98.5817 123.0099 0351102 128.0262 235.3124 13.53101916208572
TECHSAT 1B (GO-32)      
1 25397U 98043D   21037.82765336 -.00000012  00000-0  14353-4 0  9997
2 25397  98.7568 343.8443 0002348  95.2217 264.9230 14.23700730172905
ISS (ZARYA)             
1 25544U 98067A   21038.10119243 -.00000359  00000-0  16302-5 0  9990
2 25544  51.6455 266.1427 0002516 344.2732 113.4076 15.48936439268432
PCSAT (NO-44)           
1 26931U 01043C   21037.93376913 -.00000024  00000-0  22505-4 0  9998
2 26931  67.0495 257.2794 0007360 270.1882  89.8375 14.30605317 10577
SAUDISAT 1C (SO-50)     
1 27607U 02058C   21037.64679313 -.00000006  00000-0  19428-4 0  9994
2 27607  64.5564  18.3239 0029660  77.7823 282.6599 14.75708862975254
CUTE-1 (CO-55)          
1 27844U 03031E   21037.90972623  .00000060  00000-0  46431-4 0  9991
2 27844  98.6822  48.0902 0010936  96.4883 263.7540 14.22286518913427
CUBESAT XI-IV (CO-57)   
1 27848U 03031J   21037.93458236  .00000046  00000-0  40731-4 0  9998
2 27848  98.6882  48.6828 0010799 108.0871 252.1483 14.21866601913260
MOZHAYETS 4 (RS-22)     
1 27939U 03042A   21038.17158130  .00000092  00000-0  25234-4 0  9990
2 27939  98.1186 176.3462 0012050 337.4890  22.5774 14.66940934928424
CUBESAT XI-V            
1 28895U 05043F   21037.80535508  .00000116  00000-0  31118-4 0  9997
2 28895  98.0375 174.0651 0015504 260.9172  99.0276 14.63861743814898
CUTE-1.7+APD II (CO-65) 
1 32785U 08021C   21037.86766615  .00000221  00000-0  29251-4 0  9992
2 32785  97.5972  21.8931 0014521  77.5854 282.6988 14.88626136692813
DELFI-C3 (DO-64)        
1 32789U 08021G   21037.82583116  .00001003  00000-0  68203-4 0  9994
2 32789  97.3927  78.1561 0010821 225.8109 134.2232 15.08464135697135
SEEDS II (CO-66)        
1 32791U 08021J   21037.92912817  .00000406  00000-0  46042-4 0  9995
2 32791  97.5597  27.9778 0014321  45.8527 314.3867 14.91268595693402
YUBILEINY (RS-30)       
1 32953U 08025A   21038.08646136  .00000028  00000-0  12906-3 0  9996
2 32953  82.5057 132.0190 0018426 259.8045 100.0958 12.43099701576783
KKS-1 (KISEKI)          
1 33499U 09002H   21037.87355370  .00000078  00000-0  19332-4 0  9997
2 33499  98.2876 264.7806 0010360  96.7709 263.4678 14.75614402647154
SWISSCUBE               
1 35932U 09051B   21038.10507089  .00000132  00000-0  40840-4 0  9997
2 35932  98.6071 233.9641 0008475 123.5406 236.6601 14.56484924604021
BEESAT-1                
1 35933U 09051C   21037.80133126  .00000102  00000-0  34019-4 0  9999
2 35933  98.6049 235.5036 0006533 134.4462 225.7271 14.56549026604015
ITUPSAT1                
1 35935U 09051E   21037.79665118  .00000096  00000-0  33158-4 0  9995
2 35935  98.6155 235.6617 0008833 136.6195 223.5698 14.55686555603761
XIWANG-1 (HOPE-1)       
1 36122U 09072B   21038.18254043 -.00000053  00000-0 -26951-4 0  9990
2 36122 100.1164  24.3285 0007925  46.5757 313.6020 13.16358606535759
JUGNU                   
1 37839U 11058B   21038.08397203  .00000322  00000-0  29856-4 0  9992
2 37839  19.9614 299.8528 0019007  95.3915  41.4523 14.12702722482117
SRMSAT                  
1 37841U 11058D   21037.65401978  .00000296  00000-0  17724-4 0  9993
2 37841  19.9736  11.6298 0011641 297.1296 220.3641 14.10684212481220
M-CUBED & EXP-1 PRIME   
1 37855U 11061F   21037.79828924  .00001183  00000-0  64715-4 0  9999
2 37855 101.7260 253.4461 0168380  99.1560 262.8744 15.07168098506490
STRAND-1                
1 39090U 13009E   21037.54548895  .00000022  00000-0  22732-4 0  9999
2 39090  98.4365 242.7484 0008307 313.4095  46.6399 14.35167382416268
SOMP                    
1 39134U 13015E   21037.90918411  .00001442  00000-0  71872-4 0  9996
2 39134  64.8608 236.7991 0010422 220.5483 139.4869 15.21957508431342
BEESAT-3                
1 39135U 13015F   21037.90182278  .00000927  00000-0  53718-4 0  9997
2 39135  64.8649 263.9079 0013614 202.6074 157.4455 15.18888528430813
BEESAT-2                
1 39136U 13015G   21037.91161655  .00001089  00000-0  62226-4 0  9999
2 39136  64.8730 269.7371 0028272 261.1207  98.6719 15.18274911430698
ZACUBE-1 (TSHEPISOSAT)  
1 39417U 13066B   21037.68884180  .00000213  00000-0  33046-4 0  9992
2 39417  97.5816  28.8823 0057521 228.9503 130.6732 14.81422879389718
GOMX-1                  
1 39430U 13066Q   21038.07383047  .00000173  00000-0  40033-4 0  9996
2 39430  97.8097 328.6657 0150908 165.0217 195.5529 14.59530465384028
CUBEBUG-2 (LO-74)       
1 39440U 13066AA  21037.83479428  .00000236  00000-0  39812-4 0  9992
2 39440  97.6598  13.7566 0078676 299.9797  59.3621 14.76157362387152
FUNCUBE-1 (AO-73)       
1 39444U 13066AE  21037.68465113  .00000264  00000-0  38597-4 0  9995
2 39444  97.5736  31.2112 0056767 219.8275 139.8767 14.82309648388069
UWE-3                   
1 39446U 13066AG  21037.48987237  .00000221  00000-0  35932-4 0  9994
2 39446  97.6226  20.4866 0068280 266.3709  92.9692 14.78691441387159
SPROUT                  
1 39770U 14029E   21038.04700267  .00000629  00000-0  74334-4 0  9994
2 39770  97.9078 149.5613 0007516 276.7369  83.2999 14.88163023363947
UNISAT-6                
1 40012U 14033C   21037.84852456  .00000167  00000-0  32118-4 0  9996
2 40012  97.6863 247.0388 0057370 323.8667  35.8671 14.74237403356950
DUCHIFAT-1              
1 40021U 14033M   21037.75994579  .00000488  00000-0  54986-4 0  9992
2 40021  97.9620 336.6742 0011569 232.0728 127.9445 14.91170972360809
QB50P1                  
1 40025U 14033R   21037.74833263  .00000315  00000-0  39193-4 0  9999
2 40025  97.9272 328.1575 0011056 246.6575 113.3479 14.89322745359963
NUDT-PHONESAT           
1 40900U 15049B   21038.14441627  .00003279  00000-0  13237-3 0  9995
2 40900  97.4256  53.1653 0010738 233.0814 195.5475 15.25449285298955
ZDPS 2A                 
1 40901U 15049C   21038.24018723  .00001677  00000-0  83311-4 0  9995
2 40901  97.4635  46.9421 0011541 276.8823 139.5355 15.19008482298204
ZDPS 2B                 
1 40902U 15049D   21038.22262822  .00001722  00000-0  85424-4 0  9993
2 40902  97.4654  44.2134 0011429 273.9968 146.6317 15.19026159298175
XW-2A                   
1 40903U 15049E   21038.17192553  .00003010  00000-0  66976-4 0  9994
2 40903  97.2566  92.9938 0014333 125.8187 319.8103 15.44346063302689
KAITUO 1A               
1 40904U 15049F   21038.24816192  .00000773  00000-0  43692-4 0  9998
2 40904  97.4841  41.8443 0012858 292.4480  78.1518 15.15994360297819
2015-049G               
1 40905U 15049G   21038.24863642  .00000705  00000-0  41467-4 0  9994
2 40905  97.4960  38.9605 0014021 290.6698  80.2032 15.14820351297625
XW-2C                   
1 40906U 15049H   21038.24686520  .00000984  00000-0  53914-4 0  9992
2 40906  97.4834  42.2689 0013055 280.9304 134.3651 15.16470631297833
XW-2D                   
1 40907U 15049J   21038.20255946  .00001013  00000-0  55020-4 0  9997
2 40907  97.4823  41.9788 0012266 277.2570 145.2929 15.16754529297857
LILACSAT-2              
1 40908U 15049K   21038.23936635  .00000585  00000-0  35516-4 0  9993
2 40908  97.5006  40.0447 0014199 291.9468 123.4384 15.14280098297520
XW-2F                   
1 40910U 15049M   21038.12606586  .00001622  00000-0  81625-4 0  9998
2 40910  97.4718  44.8157 0012809 264.0829 161.0479 15.18588549297945
XW-2B                   
1 40911U 15049N   21038.21056198  .00001091  00000-0  59074-4 0  9990
2 40911  97.4834  42.6815 0012260 278.8956 210.2956 15.16675603297748
KAITUO 1B               
1 40912U 15049P   21038.14076332  .00001742  00000-0  81420-4 0  9998
2 40912  97.4476  49.1585 0012992 234.7403 190.3527 15.21065502298387
TIANWANG 1C (TW-1C)     
1 40926U 15051B   21038.17171285  .00231408  23119-4  54431-3 0  9997
2 40926  97.0458 100.0279 0003139 237.4363 184.2424 15.96880673303968
TIANWANG 1A (TW-1A)     
1 40928U 15051D   21038.16686770  .00004375  00000-0  96171-4 0  9997
2 40928  97.0901  66.2311 0011398  57.7935  15.0722 15.44455366301574
LAPAN-A2                
1 40931U 15052B   21036.77230682  .00000600  00000-0 -56382-5 0  9993
2 40931   5.9982 111.5267 0013685 341.0460  18.9298 14.76659960289803
E-ST@R-II               
1 41459U 16025D   21038.14102250  .00003496  00000-0  17376-3 0  9995
2 41459  98.1222 166.8079 0163359 141.5010 219.7957 15.07424536262787
AAUSAT 4                
1 41460U 16025E   21038.09063062  .00005201  00000-0  24685-3 0  9995
2 41460  98.1220 170.0074 0150584 127.5978 233.9025 15.10194929263039
NUSAT-1 (FRESCO)        
1 41557U 16033B   21038.23533957  .00001864  00000-0  69053-4 0  9992
2 41557  97.3958 132.9743 0012339 344.0198  68.1424 15.28853687261637
BEESAT-4                
1 41619U 16040W   21037.90169252  .00001678  00000-0  70172-4 0  9992
2 41619  97.2895  97.5720 0012447  75.7985 284.4635 15.24880843245110
